CCSDS_OMM_VERS = 2.0
CREATION_DATE  = 
ORIGINATOR     = 

OBJECT_NAME    = STARLINK-35317
OBJECT_ID      = 2025-243H
CENTER_NAME    = EARTH
REF_FRAME      = TEME
TIME_SYSTEM    = UTC
MEAN_ELEMENT_THEORY = SGP/SGP4

EPOCH          = 2025-11-06T06:00:02.000160
MEAN_MOTION    = 15.80560313
ECCENTRICITY   = .00009842
INCLINATION    = 53.1525
RA_OF_ASC_NODE = 103.3671
ARG_OF_PERICENTER = 71.1512
MEAN_ANOMALY   = 103.7118

EPHEMERIS_TYPE = 0
CLASSIFICATION_TYPE = U
NORAD_CAT_ID   = 66184
ELEMENT_SET_NO = 999
REV_AT_EPOCH   = 272
BSTAR          = -.74709315E-2
MEAN_MOTION_DOT = -.1281254E-1
MEAN_MOTION_DDOT = 0

CCSDS_OMM_VERS = 2.0
CREATION_DATE  = 
ORIGINATOR     = 

OBJECT_NAME    = STARLINK-35377
OBJECT_ID      = 2025-243J
CENTER_NAME    = EARTH
REF_FRAME      = TEME
TIME_SYSTEM    = UTC
MEAN_ELEMENT_THEORY = SGP/SGP4

EPOCH          = 2025-11-06T06:00:02.000160
MEAN_MOTION    = 15.80568177
ECCENTRICITY   = .00007863
INCLINATION    = 53.1527
RA_OF_ASC_NODE = 103.3760
ARG_OF_PERICENTER = 61.0440
MEAN_ANOMALY   = 109.6081

EPHEMERIS_TYPE = 0
CLASSIFICATION_TYPE = U
NORAD_CAT_ID   = 66185
ELEMENT_SET_NO = 999
REV_AT_EPOCH   = 278
BSTAR          = -.73605103E-2
MEAN_MOTION_DOT = -.1264861E-1
MEAN_MOTION_DDOT = 0

CCSDS_OMM_VERS = 2.0
CREATION_DATE  = 
ORIGINATOR     = 

OBJECT_NAME    = STARLINK-35365
OBJECT_ID      = 2025-243K
CENTER_NAME    = EARTH
REF_FRAME      = TEME
TIME_SYSTEM    = UTC
MEAN_ELEMENT_THEORY = SGP/SGP4

EPOCH          = 2025-11-06T06:00:02.000160
MEAN_MOTION    = 15.80591631
ECCENTRICITY   = .00008417
INCLINATION    = 53.1526
RA_OF_ASC_NODE = 103.3855
ARG_OF_PERICENTER = 68.3278
MEAN_ANOMALY   = 97.9435

EPHEMERIS_TYPE = 0
CLASSIFICATION_TYPE = U
NORAD_CAT_ID   = 66186
ELEMENT_SET_NO = 999
REV_AT_EPOCH   = 272
BSTAR          = -.72630413E-2
MEAN_MOTION_DOT = -.1251305E-1
MEAN_MOTION_DDOT = 0

CCSDS_OMM_VERS = 2.0
CREATION_DATE  = 
ORIGINATOR     = 

OBJECT_NAME    = STARLINK-35350
OBJECT_ID      = 2025-243L
CENTER_NAME    = EARTH
REF_FRAME      = TEME
TIME_SYSTEM    = UTC
MEAN_ELEMENT_THEORY = SGP/SGP4

EPOCH          = 2025-11-06T06:00:02.000160
MEAN_MOTION    = 15.80592048
ECCENTRICITY   = .00008069
INCLINATION    = 53.1526
RA_OF_ASC_NODE = 103.3814
ARG_OF_PERICENTER = 65.6666
MEAN_ANOMALY   = 102.6570

EPHEMERIS_TYPE = 0
CLASSIFICATION_TYPE = U
NORAD_CAT_ID   = 66187
ELEMENT_SET_NO = 999
REV_AT_EPOCH   = 272
BSTAR          = -.72923906E-2
MEAN_MOTION_DOT = -.1255771E-1
MEAN_MOTION_DDOT = 0

CCSDS_OMM_VERS = 2.0
CREATION_DATE  = 
ORIGINATOR     = 

OBJECT_NAME    = STARLINK-35041
OBJECT_ID      = 2025-243M
CENTER_NAME    = EARTH
REF_FRAME      = TEME
TIME_SYSTEM    = UTC
MEAN_ELEMENT_THEORY = SGP/SGP4

EPOCH          = 2025-11-06T06:00:02.000160
MEAN_MOTION    = 15.80554494
ECCENTRICITY   = .000099
INCLINATION    = 53.1526
RA_OF_ASC_NODE = 103.3639
ARG_OF_PERICENTER = 73.0698
MEAN_ANOMALY   = 103.9372

EPHEMERIS_TYPE = 0
CLASSIFICATION_TYPE = U
NORAD_CAT_ID   = 66188
ELEMENT_SET_NO = 999
REV_AT_EPOCH   = 277
BSTAR          = -.75377294E-2
MEAN_MOTION_DOT = -.1291016E-1
MEAN_MOTION_DDOT = 0

CCSDS_OMM_VERS = 2.0
CREATION_DATE  = 
ORIGINATOR     = 

OBJECT_NAME    = STARLINK-34694
OBJECT_ID      = 2025-243N
CENTER_NAME    = EARTH
REF_FRAME      = TEME
TIME_SYSTEM    = UTC
MEAN_ELEMENT_THEORY = SGP/SGP4

EPOCH          = 2025-11-06T06:00:02.000160
MEAN_MOTION    = 15.80532014
ECCENTRICITY   = .00007551
INCLINATION    = 53.1525
RA_OF_ASC_NODE = 103.3539
ARG_OF_PERICENTER = 63.2959
MEAN_ANOMALY   = 118.1036

EPHEMERIS_TYPE = 0
CLASSIFICATION_TYPE = U
NORAD_CAT_ID   = 66189
ELEMENT_SET_NO = 999
REV_AT_EPOCH   = 272
BSTAR          = -.76710211E-2
MEAN_MOTION_DOT = -.1309687E-1
MEAN_MOTION_DDOT = 0

CCSDS_OMM_VERS = 2.0
CREATION_DATE  = 
ORIGINATOR     = 

OBJECT_NAME    = STARLINK-34863
OBJECT_ID      = 2025-243P
CENTER_NAME    = EARTH
REF_FRAME      = TEME
TIME_SYSTEM    = UTC
MEAN_ELEMENT_THEORY = SGP/SGP4

EPOCH          = 2025-11-06T06:00:02.000160
MEAN_MOTION    = 15.80571650
ECCENTRICITY   = .00009995
INCLINATION    = 53.1526
RA_OF_ASC_NODE = 103.3712
ARG_OF_PERICENTER = 70.0954
MEAN_ANOMALY   = 102.5927

EPHEMERIS_TYPE = 0
CLASSIFICATION_TYPE = U
NORAD_CAT_ID   = 66190
ELEMENT_SET_NO = 999
REV_AT_EPOCH   = 272
BSTAR          = -.74251614E-2
MEAN_MOTION_DOT = -.1274944E-1
MEAN_MOTION_DDOT = 0

CCSDS_OMM_VERS = 2.0
CREATION_DATE  = 
ORIGINATOR     = 

OBJECT_NAME    = STARLINK-35061
OBJECT_ID      = 2025-243Q
CENTER_NAME    = EARTH
REF_FRAME      = TEME
TIME_SYSTEM    = UTC
MEAN_ELEMENT_THEORY = SGP/SGP4

EPOCH          = 2025-11-06T06:00:02.000160
MEAN_MOTION    = 15.80424386
ECCENTRICITY   = .00009118
INCLINATION    = 53.1523
RA_OF_ASC_NODE = 103.3258
ARG_OF_PERICENTER = 64.6872
MEAN_ANOMALY   = 130.1335

EPHEMERIS_TYPE = 0
CLASSIFICATION_TYPE = U
NORAD_CAT_ID   = 66191
ELEMENT_SET_NO = 999
REV_AT_EPOCH   = 277
BSTAR          = -.80206254E-2
MEAN_MOTION_DOT = -.1382213E-1
MEAN_MOTION_DDOT = 0

CCSDS_OMM_VERS = 2.0
CREATION_DATE  = 
ORIGINATOR     = 

OBJECT_NAME    = STARLINK-34937
OBJECT_ID      = 2025-243R
CENTER_NAME    = EARTH
REF_FRAME      = TEME
TIME_SYSTEM    = UTC
MEAN_ELEMENT_THEORY = SGP/SGP4

EPOCH          = 2025-11-06T06:00:02.000160
MEAN_MOTION    = 15.80422325
ECCENTRICITY   = .0000803
INCLINATION    = 53.1523
RA_OF_ASC_NODE = 103.3302
ARG_OF_PERICENTER = 73.3272
MEAN_ANOMALY   = 119.4448

EPHEMERIS_TYPE = 0
CLASSIFICATION_TYPE = U
NORAD_CAT_ID   = 66192
ELEMENT_SET_NO = 999
REV_AT_EPOCH   = 251
BSTAR          = -.79584202E-2
MEAN_MOTION_DOT = -.1372475E-1
MEAN_MOTION_DDOT = 0

CCSDS_OMM_VERS = 2.0
CREATION_DATE  = 
ORIGINATOR     = 

OBJECT_NAME    = STARLINK-35197
OBJECT_ID      = 2025-243S
CENTER_NAME    = EARTH
REF_FRAME      = TEME
TIME_SYSTEM    = UTC
MEAN_ELEMENT_THEORY = SGP/SGP4

EPOCH          = 2025-11-06T06:00:02.000160
MEAN_MOTION    = 15.80450719
ECCENTRICITY   = .00008232
INCLINATION    = 53.1524
RA_OF_ASC_NODE = 103.3343
ARG_OF_PERICENTER = 61.1352
MEAN_ANOMALY   = 129.2967

EPHEMERIS_TYPE = 0
CLASSIFICATION_TYPE = U
NORAD_CAT_ID   = 66193
ELEMENT_SET_NO = 999
REV_AT_EPOCH   = 272
BSTAR          = -.78838509E-2
MEAN_MOTION_DOT = -.1362605E-1
MEAN_MOTION_DDOT = 0

CCSDS_OMM_VERS = 2.0
CREATION_DATE  = 
ORIGINATOR     = 

OBJECT_NAME    = STARLINK-35374
OBJECT_ID      = 2025-243T
CENTER_NAME    = EARTH
REF_FRAME      = TEME
TIME_SYSTEM    = UTC
MEAN_ELEMENT_THEORY = SGP/SGP4

EPOCH          = 2025-11-06T06:00:02.000160
MEAN_MOTION    = 15.80471956
ECCENTRICITY   = .00008384
INCLINATION    = 53.1523
RA_OF_ASC_NODE = 103.3392
ARG_OF_PERICENTER = 62.9098
MEAN_ANOMALY   = 125.2657

EPHEMERIS_TYPE = 0
CLASSIFICATION_TYPE = U
NORAD_CAT_ID   = 66194
ELEMENT_SET_NO = 999
REV_AT_EPOCH   = 272
BSTAR          = -.78255277E-2
MEAN_MOTION_DOT = -.1354798E-1
MEAN_MOTION_DDOT = 0

CCSDS_OMM_VERS = 2.0
CREATION_DATE  = 
ORIGINATOR     = 

OBJECT_NAME    = STARLINK-34813
OBJECT_ID      = 2025-243U
CENTER_NAME    = EARTH
REF_FRAME      = TEME
TIME_SYSTEM    = UTC
MEAN_ELEMENT_THEORY = SGP/SGP4

EPOCH          = 2025-11-06T06:00:02.000160
MEAN_MOTION    = 15.80473506
ECCENTRICITY   = .00007564
INCLINATION    = 53.1525
RA_OF_ASC_NODE = 103.3443
ARG_OF_PERICENTER = 64.5423
MEAN_ANOMALY   = 121.5544

EPHEMERIS_TYPE = 0
CLASSIFICATION_TYPE = U
NORAD_CAT_ID   = 66195
ELEMENT_SET_NO = 999
REV_AT_EPOCH   = 272
BSTAR          = -.77813891E-2
MEAN_MOTION_DOT = -.1323016E-1
MEAN_MOTION_DDOT = 0

