STARLINK-35317          
1 66184U 25243H   25310.25002315 -.01281254  00000+0 -74709-2 0  9993
2 66184  53.1525 103.3671 0000984  71.1512 103.7118 15.80560313  2721
STARLINK-35377          
1 66185U 25243J   25310.25002315 -.01264861  00000+0 -73605-2 0  9993
2 66185  53.1527 103.3760 0000786  61.0440 109.6081 15.80568177  2787
STARLINK-35365          
1 66186U 25243K   25310.25002315 -.01251305  00000+0 -72630-2 0  9990
2 66186  53.1526 103.3855 0000841  68.3278  97.9435 15.80591631  2720
STARLINK-35350          
1 66187U 25243L   25310.25002315 -.01255771  00000+0 -72924-2 0  9998
2 66187  53.1526 103.3814 0000806  65.6666 102.6570 15.80592048  2725
STARLINK-35041          
1 66188U 25243M   25310.25002315 -.01291016  00000+0 -75377-2 0  9996
2 66188  53.1526 103.3639 0000990  73.0698 103.9372 15.80554494  2775
STARLINK-34694          
1 66189U 25243N   25310.25002315 -.01309687  00000+0 -76710-2 0  9993
2 66189  53.1525 103.3539 0000755  63.2959 118.1036 15.80532014  2728
STARLINK-34863          
1 66190U 25243P   25310.25002315 -.01274944  00000+0 -74252-2 0  9991
2 66190  53.1526 103.3712 0000999  70.0954 102.5927 15.80571650  2720
STARLINK-35061          
1 66191U 25243Q   25310.25002315 -.01382213  00000+0 -80206-2 0  9997
2 66191  53.1523 103.3258 0000911  64.6872 130.1335 15.80424386  2773
STARLINK-34937          
1 66192U 25243R   25310.25002315 -.01372475  00000+0 -79584-2 0  9994
2 66192  53.1523 103.3302 0000803  73.3272 119.4448 15.80422325  2513
STARLINK-35197          
1 66193U 25243S   25310.25002315 -.01362605  00000+0 -78839-2 0  9991
2 66193  53.1524 103.3343 0000823  61.1352 129.2967 15.80450719  2722
STARLINK-35374          
1 66194U 25243T   25310.25002315 -.01354798  00000+0 -78255-2 0  9998
2 66194  53.1523 103.3392 0000838  62.9098 125.2657 15.80471956  2726
STARLINK-34813          
1 66195U 25243U   25310.25002315 -.01323016  00000+0 -77814-2 0  9998
2 66195  53.1525 103.3443 0000756  64.5423 121.5544 15.80473506  2722
